NORAD_CAT_ID,OBJECT_NAME,OBJECT_TYPE,EPOCH,MEAN_MOTION,ECCENTRICITY,INCLINATION,RA_OF_ASC_NODE,ARG_OF_PERICENTER,MEAN_ANOMALY,BSTAR,MEAN_MOTION_DOT,MEAN_MOTION_DDOT,TLE_LINE0,TLE_LINE1,TLE_LINE2,SEMIMAJOR_AXIS,PERIOD,APOGEE,PERIGEE,DECAYED
52656.0,STARLINK-4004,PAYLOAD,2023-09-08 10:32:40,15.08845757,0.00015,53.2181,293.8597,90.2796,269.8368,5.1157e-05,5.26e-06,0.0,0 STARLINK-4004,1 52656U 22053A   23251.43935860  .00000526  00000-0  51157-4 0  9993,2 52656  53.2181 293.8597 0001500  90.2796 269.8368 15.08845757 73246,6917.863,95.437,540.765,538.69,0.0
52656.0,STARLINK-4004,PAYLOAD,2023-09-08 12:08:03,15.08846316,0.0001625,53.2188,293.5621,93.6375,266.4803,6.4146e-05,7.33e-06,0.0,0 STARLINK-4004,1 52656U 22053A   23251.50559777  .00000733  00000-0  64146-4 0  9992,2 52656  53.2188 293.5621 0001625  93.6375 266.4803 15.08846316 73256,6917.861,95.437,540.85,538.602,0.0
52656.0,STARLINK-4004,PAYLOAD,2023-09-08 20:04:59,15.08839414,2.65e-05,53.2177,292.0749,158.0227,202.0776,0.00010136,1.326e-05,0.0,0 STARLINK-4004,1 52656U 22053A   23251.83679499  .00001326  00000-0  10136-3 0  9990,2 52656  53.2177 292.0749 0000265 158.0227 202.0776 15.08839414 73302,6917.882,95.438,539.931,539.564,0.0
52656.0,STARLINK-4004,PAYLOAD,2023-09-09 02:26:32,15.08827852,0.0001603,53.2151,290.8829,91.938,268.1796,0.00013274,1.825e-05,0.0,0 STARLINK-4004,1 52656U 22053A   23252.10176773  .00001825  00000-0  13274-3 0  9998,2 52656  53.2151 290.8829 0001603  91.9380 268.1796 15.08827852 73343,6917.918,95.438,540.891,538.674,0.0
52656.0,STARLINK-4004,PAYLOAD,2023-09-09 10:23:29,15.08822282,0.0001426,53.2173,289.3977,92.8207,267.2948,-7.8215e-05,-1.532e-05,0.0,0 STARLINK-4004,1 52656U 22053A   23252.43298022 -.00001532  00000-0 -78215-4 0  9990,2 52656  53.2173 289.3977 0001426  92.8207 267.2948 15.08822282 73391,6917.935,95.439,540.786,538.813,0.0
52656.0,STARLINK-4004,PAYLOAD,2023-09-09 19:55:48,15.08827594,0.0001506,53.2181,287.6133,91.2498,268.8667,-1.7577e-05,-5.68e-06,0.0,0 STARLINK-4004,1 52656U 22053A   23252.83041930 -.00000568  00000-0 -17577-4 0  9990,2 52656  53.2181 287.6133 0001506  91.2498 268.8667 15.08827594 73452,6917.918,95.438,540.825,538.741,0.0
52656.0,STARLINK-4004,PAYLOAD,2023-09-10 08:38:52,15.08840867,0.000131,53.2169,285.2349,89.9541,270.1601,3.0249e-05,1.94e-06,0.0,0 STARLINK-4004,1 52656U 22053A   23253.36033202  .00000194  00000-0  30249-4 0  9996,2 52656  53.2169 285.2349 0001310  89.9541 270.1601 15.08840867 73538,6917.878,95.437,540.649,538.836,0.0
52656.0,STARLINK-4004,PAYLOAD,2023-09-10 11:49:38,15.08842238,0.0001335,53.217,284.64,89.1827,270.9318,5.1129e-05,5.26e-06,0.0,0 STARLINK-4004,1 52656U 22053A   23253.49281118  .00000526  00000-0  51129-4 0  9990,2 52656  53.2170 284.6400 0001335  89.1827 270.9318 15.08842238 73556,6917.874,95.437,540.662,538.815,0.0
52656.0,STARLINK-4004,PAYLOAD,2023-09-11 02:08:06,15.08849886,0.0001339,53.217,281.9641,83.6418,276.4726,0.000186,2.674e-05,0.0,0 STARLINK-4004,1 52656U 22053A   23254.08896492  .00002674  00000-0  18600-3 0  9995,2 52656  53.2170 281.9641 0001339  83.6418 276.4726 15.08849886 73642,6917.85,95.437,540.641,538.789,0.0
52656.0,STARLINK-4004,PAYLOAD,2023-09-11 08:29:39,15.08857763,0.0001439,53.2159,280.7755,83.5569,276.5587,0.0006342,9.825e-05,0.0,0 STARLINK-4004,1 52656U 22053A   23254.35393127  .00009825  00000-0  63420-3 0  9997,2 52656  53.2159 280.7755 0001439  83.5569 276.5587 15.08857763 73682,6917.826,95.436,540.687,538.696,0.0
52656.0,STARLINK-4004,PAYLOAD,2023-09-12 08:20:25,15.08859884,0.0001597,53.2165,276.3148,97.0805,263.0369,0.0002168,3.166e-05,0.0,0 STARLINK-4004,1 52656U 22053A   23255.34752096  .00003166  00000-0  21680-3 0  9995,2 52656  53.2165 276.3148 0001597  97.0805 263.0369 15.08859884 73836,6917.82,95.436,540.789,538.58,0.0
52656.0,STARLINK-4004,PAYLOAD,2023-09-12 17:52:44,15.08855333,0.00015,53.2158,274.5314,97.7575,262.3587,0.00012618,1.722e-05,0.0,0 STARLINK-4004,1 52656U 22053A   23255.74495965  .00001722  00000-0  12618-3 0  9995,2 52656  53.2158 274.5314 0001500  97.7575 262.3587 15.08855333 73893,6917.834,95.437,540.736,538.661,0.0
52656.0,STARLINK-4004,PAYLOAD,2023-09-13 08:11:12,15.08854445,0.0001656,53.2164,271.857,107.5807,252.5366,0.00010493,1.383e-05,0.0,0 STARLINK-4004,1 52656U 22053A   23256.34111561  .00001383  00000-0  10493-3 0  9991,2 52656  53.2164 271.8570 0001656 107.5807 252.5366 15.08854445 73983,6917.836,95.437,540.847,538.556,0.0
52656.0,STARLINK-4004,PAYLOAD,2023-09-13 17:43:31,15.08844975,0.0001651,53.2172,270.0689,86.6098,273.5083,-1.9815e-05,-6.03e-06,0.0,0 STARLINK-4004,1 52656U 22053A   23256.73855801 -.00000603  00000-0 -19815-4 0  9990,2 52656  53.2172 270.0689 0001651  86.6098 273.5083 15.08844975 74042,6917.865,95.437,540.872,538.588,0.0
52656.0,STARLINK-4004,PAYLOAD,2023-09-14 09:37:23,15.08825756,0.0001529,53.2161,267.0955,90.693,269.4238,-0.00020691,-3.578e-05,0.0,0 STARLINK-4004,1 52656U 22053A   23257.40096987 -.00003578  00000-0 -20691-3 0  9994,2 52656  53.2161 267.0955 0001529  90.6930 269.4238 15.08825756 74149,6917.924,95.438,540.847,538.731,0.0
52656.0,STARLINK-4004,PAYLOAD,2023-09-14 11:12:46,15.088246,0.0001526,53.2163,266.798,92.8197,267.2969,-0.00019079,-3.322e-05,0.0,0 STARLINK-4004,1 52656U 22053A   23257.46721037 -.00003322  00000-0 -19079-3 0  9996,2 52656  53.2163 266.7980 0001526  92.8197 267.2969 15.08824600 74156,6917.927,95.439,540.848,538.737,0.0
52656.0,STARLINK-4004,PAYLOAD,2023-09-14 17:34:19,15.08828439,0.0001573,53.2166,265.6103,94.7731,265.3441,-1.609e-05,-5.44e-06,0.0,0 STARLINK-4004,1 52656U 22053A   23257.73217267 -.00000544  00000-0 -16090-4 0  9995,2 52656  53.2166 265.6103 0001573  94.7731 265.3441 15.08828439 74193,6917.916,95.438,540.869,538.693,0.0
52656.0,STARLINK-4004,PAYLOAD,2023-09-15 07:52:48,15.08836777,0.0001581,53.2166,262.9339,92.3559,267.7614,0.00020036,2.902e-05,0.0,0 STARLINK-4004,1 52656U 22053A   23258.32833403  .00002902  00000-0  20036-3 0  9999,2 52656  53.2166 262.9339 0001581  92.3559 267.7614 15.08836777 74287,6917.89,95.438,540.849,538.662,0.0
52656.0,STARLINK-4004,PAYLOAD,2023-09-16 09:18:57,15.08862155,0.000148,53.2149,258.175,88.8931,271.2231,0.00068824,0.00010689,0.0,0 STARLINK-4004,1 52656U 22053A   23259.38816792  .00010689  00000-0  68824-3 0  9996,2 52656  53.2149 258.1750 0001480  88.8931 271.2231 15.08862155 74446,6917.813,95.436,540.702,538.654,0.0
52656.0,STARLINK-4004,PAYLOAD,2023-09-16 17:15:53,15.08852484,0.0001473,53.2148,256.6882,89.0785,271.0376,0.00019742,2.856e-05,0.0,0 STARLINK-4004,1 52656U 22053A   23259.71936705  .00002856  00000-0  19742-3 0  9992,2 52656  53.2148 256.6882 0001473  89.0785 271.0376 15.08852484 74493,6917.842,95.437,540.726,538.688,0.0
52656.0,STARLINK-4004,PAYLOAD,2023-09-17 09:09:44,15.08852397,0.000155,53.2155,253.7137,94.9009,265.216,0.00025296,3.741e-05,0.0,0 STARLINK-4004,1 52656U 22053A   23260.38176733  .00003741  00000-0  25296-3 0  9999,2 52656  53.2155 253.7137 0001550  94.9009 265.2160 15.08852397 74592,6917.842,95.437,540.78,538.635,0.0
52656.0,STARLINK-4004,PAYLOAD,2023-09-17 17:06:40,15.08844648,0.0001604,53.2164,252.2242,97.0205,263.097,7.6202e-05,9.25e-06,0.0,0 STARLINK-4004,1 52656U 22053A   23260.71296872  .00000925  00000-0  76202-4 0  9998,2 52656  53.2164 252.2242 0001604  97.0205 263.0970 15.08844648 74646,6917.866,95.437,540.841,538.622,0.0
52656.0,STARLINK-4004,PAYLOAD,2023-09-18 05:49:45,15.08846833,0.0001541,53.216,249.8485,93.8406,266.2762,6.1645e-05,6.93e-06,0.0,0 STARLINK-4004,1 52656U 22053A   23261.24288779  .00000693  00000-0  61645-4 0  9991,2 52656  53.2160 249.8485 0001541  93.8406 266.2762 15.08846833 74721,6917.86,95.437,540.791,538.658,0.0
52656.0,STARLINK-4004,PAYLOAD,2023-09-18 16:57:27,15.08843802,0.0001492,53.2162,247.7656,97.8658,262.2503,-9.5855e-06,-4.41e-06,0.0,0 STARLINK-4004,1 52656U 22053A   23261.70656835 -.00000441  00000-0 -95855-5 0  9998,2 52656  53.2162 247.7656 0001492  97.8658 262.2503 15.08843802 74797,6917.869,95.437,540.766,538.702,0.0
52656.0,STARLINK-4004,PAYLOAD,2023-09-19 02:29:46,15.08844634,0.0001542,53.216,245.9802,101.7097,258.4068,0.00016378,2.32e-05,0.0,0 STARLINK-4004,1 52656U 22053A   23262.10400802  .00002320  00000-0  16378-3 0  9991,2 52656  53.2160 245.9802 0001542 101.7097 258.4068 15.08844634 74850,6917.866,95.437,540.798,538.664,0.0
52656.0,STARLINK-4004,PAYLOAD,2023-09-20 02:20:33,15.08837327,0.0001501,53.2166,241.5215,103.354,256.762,3.4091e-05,2.55e-06,0.0,0 STARLINK-4004,1 52656U 22053A   23263.09761225  .00000255  00000-0  34091-4 0  9997,2 52656  53.2166 241.5215 0001501 103.3540 256.7620 15.08837327 75006,6917.889,95.438,540.792,538.715,0.0
52656.0,STARLINK-4004,PAYLOAD,2023-09-20 08:42:06,15.08837227,0.0001477,53.2161,240.3312,91.6923,268.4239,1.7134e-05,-1.5e-07,0.0,0 STARLINK-4004,1 52656U 22053A   23263.36257315 -.00000015  00000-0  17134-4 0  9991,2 52656  53.2161 240.3312 0001477  91.6923 268.4239 15.08837227 75041,6917.889,95.438,540.776,538.732,0.0
52656.0,STARLINK-4004,PAYLOAD,2023-09-20 15:03:39,15.08833552,0.0001484,53.2161,239.141,100.0595,260.0565,-9.7872e-06,-4.44e-06,0.0,0 STARLINK-4004,1 52656U 22053A   23263.62753491 -.00000444  00000-0 -97872-5 0  9991,2 52656  53.2161 239.1410 0001484 100.0595 260.0565 15.08833552 75085,6917.9,95.438,540.792,538.738,0.0
52656.0,STARLINK-4004,PAYLOAD,2023-09-21 02:11:21,15.08830875,0.0001606,53.2173,237.0603,109.0693,251.0473,-2.9062e-05,-7.5e-06,0.0,0 STARLINK-4004,1 52656U 22053A   23264.09122282 -.00000750  00000-0 -29062-4 0  9996,2 52656  53.2173 237.0603 0001606 109.0693 251.0473 15.08830875 75154,6917.908,95.438,540.884,538.662,0.0
52656.0,STARLINK-4004,PAYLOAD,2023-09-21 05:22:07,15.08832999,0.0001492,53.218,236.4686,105.6809,254.4348,-1.6068e-05,-5.44e-06,0.0,0 STARLINK-4004,1 52656U 22053A   23264.22370239 -.00000544  00000-0 -16068-4 0  9991,2 52656  53.2180 236.4686 0001492 105.6809 254.4348 15.08832999 75179,6917.902,95.438,540.799,538.735,0.0
